{
  "AG": {
    "name": "Antigua and Barbuda",
    "calling_code": "+1268",
    "capital": "Saint John's",
    "borders": [],
    "flag": {
      "emoji": "ðŸ‡¦ðŸ‡¬",
      "emoji_unicode": "U+1F1E6 U+1F1EC",
      "svg": "https://flagcdn.com/ag.svg"
    }
  },
  "BT": {
    "name": "Bhutan",
    "calling_code": "+975",
    "capital": "Thimphu",
    "borders": [
      "CN",
      "IN"
    ],
    "flag": {
      "emoji": "ðŸ‡§ðŸ‡¹",
      "emoji_unicode": "U+1F1E7 U+1F1F9",
      "svg": "https://flagcdn.com/bt.svg"
    }
  },
  "IT": {
    "name": "Italy",
    "calling_code": "+39",
    "capital": "Rome",
    "borders": [
      "AT",
      "FR",
      "SM",
      "SI",
      "CH",
      "VA"
    ],
    "flag": {
      "emoji": "ðŸ‡®ðŸ‡¹",
      "emoji_unicode": "U+1F1EE U+1F1F9",
      "svg": "https://flagcdn.com/it.svg"
    }
  },
  "TV": {
    "name": "Tuvalu",
    "calling_code": "+688",
    "capital": "Funafuti",
    "borders": [],
    "flag": {
      "emoji": "ðŸ‡¹ðŸ‡»",
      "emoji_unicode": "U+1F1F9 U+1F1FB",
      "svg": "https://flagcdn.com/tv.svg"
    }
  },
  "AI": {
    "name": "Anguilla",
    "calling_code": "+1264",
    "capital": "The Valley",
    "borders": [],
    "flag": {
      "emoji": "ðŸ‡¦ðŸ‡®",
      "emoji_unicode": "U+1F1E6 U+1F1EE",
      "svg": "https://flagcdn.com/ai.svg"
    }
  },
  "AU": {
    "name": "Australia",
    "calling_code": "+61",
    "capital": "Canberra",
    "borders": [],
    "flag": {
      "emoji": "ðŸ‡¦ðŸ‡º",
      "emoji_unicode": "U+1F1E6 U+1F1FA",
      "svg": "https://flagcdn.com/au.svg"
    }
  },
  "BZ": {
    "name": "Belize",
    "calling_code": "+501",
    "capital": "Belmopan",
    "borders": [
      "GT",
      "MX"
    ],
    "flag": {
      "emoji": "ðŸ‡§ðŸ‡¿",
      "emoji_unicode": "U+1F1E7 U+1F1FF",
      "svg": "https://flagcdn.com/bz.svg"
    }
  },
  "VU": {
    "name": "Vanuatu",
    "calling_code": "+678",
    "capital": "Port Vila",
    "borders": [],
    "flag": {
      "emoji": "ðŸ‡»ðŸ‡º",
      "emoji_unicode": "U+1F1FB U+1F1FA",
      "svg": "https://flagcdn.com/vu.svg"
    }
  },
  "BY": {
    "name": "Belarus",
    "calling_code": "+375",
    "capital": "Minsk",
    "borders": [
      "LV",
      "LT",
      "PL",
      "RU",
      "UA"
    ],
    "flag": {
      "emoji": "ðŸ‡§ðŸ‡¾",
      "emoji_unicode": "U+1F1E7 U+1F1FE",
      "svg": "https://flagcdn.com/by.svg"
    }
  },
  "MU": {
    "name": "Mauritius",
    "calling_code": "+230",
    "capital": "Port Louis",
    "borders": [],
    "flag": {
      "emoji": "ðŸ‡²ðŸ‡º",
      "emoji_unicode": "U+1F1F2 U+1F1FA",
      "svg": "https://flagcdn.com/mu.svg"
    }
  },
  "LA": {
    "name": "Laos",
    "calling_code": "+856",
    "capital": "Vientiane",
    "borders": [
      "MM",
      "KH",
      "CN",
      "TH",
      "VN"
    ],
    "flag": {
      "emoji": "ðŸ‡±ðŸ‡¦",
      "emoji_unicode": "U+1F1F1 U+1F1E6",
      "svg": "https://flagcdn.com/la.svg"
    }
  },
  "SN": {
    "name": "Senegal",
    "calling_code": "+221",
    "capital": "Dakar",
    "borders": [
      "GM",
      "GN",
      "GW",
      "ML",
      "MR"
    ],
    "flag": {
      "emoji": "ðŸ‡¸ðŸ‡³",
      "emoji_unicode": "U+1F1F8 U+1F1F3",
      "svg": "https://flagcdn.com/sn.svg"
    }
  },
  "TR": {
    "name": "Turkey",
    "calling_code": "+90",
    "capital": "Ankara",
    "borders": [
      "AM",
      "AZ",
      "BG",
      "GE",
      "GR",
      "IR",
      "IQ",
      "SY"
    ],
    "flag": {
      "emoji": "ðŸ‡¹ðŸ‡·",
      "emoji_unicode": "U+1F1F9 U+1F1F7",
      "svg": "https://flagcdn.com/tr.svg"
    }
  },
  "BO": {
    "name": "Bolivia",
    "calling_code": "+591",
    "capital": "Sucre",
    "borders": [
      "AR",
      "BR",
      "CL",
      "PY",
      "PE"
    ],
    "flag": {
      "emoji": "ðŸ‡§ðŸ‡´",
      "emoji_unicode": "U+1F1E7 U+1F1F4",
      "svg": "https://flagcdn.com/bo.svg"
    }
  },
  "LK": {
    "name": "Sri Lanka",
    "calling_code": "+94",
    "capital": "Sri Jayawardenepura Kotte",
    "borders": [],
    "flag": {
      "emoji": "ðŸ‡±ðŸ‡°",
      "emoji_unicode": "U+1F1F1 U+1F1F0",
      "svg": "https://flagcdn.com/lk.svg"
    }
  },
  "NF": {
    "name": "Norfolk Island",
    "calling_code": "+672",
    "capital": "Kingston",
    "borders": [],
    "flag": {
      "emoji": "ðŸ‡³ðŸ‡«",
      "emoji_unicode": "U+1F1F3 U+1F1EB",
      "svg": "https://flagcdn.com/nf.svg"
    }
  },
  "CN": {
    "name": "China",
    "calling_code": "+86",
    "capital": "Beijing",
    "borders": [
      "AF",
      "BT",
      "MM",
      "HK",
      "IN",
      "KZ",
      "NP",
      "KP",
      "KG",
      "LA",
      "MO",
      "MN",
      "PK",
      "RU",
      "TJ",
      "VN"
    ],
    "flag": {
      "emoji": "ðŸ‡¨ðŸ‡³",
      "emoji_unicode": "U+1F1E8 U+1F1F3",
      "svg": "https://flagcdn.com/cn.svg"
    }
  },
  "BQ": {
    "name": "Caribbean Netherlands",
    "calling_code": "+599",
    "capital": "Kralendijk",
    "borders": [],
    "flag": {
      "emoji": "ðŸ‡§ðŸ‡¶",
      "emoji_unicode": "U+1F1E7 U+1F1F6",
      "svg": "https://flagcdn.com/bq.svg"
    }
  },
  "GG": {
    "name": "Guernsey",
    "calling_code": "+44",
    "capital": "St. Peter Port",
    "borders": [],
    "flag": {
      "emoji": "ðŸ‡¬ðŸ‡¬",
      "emoji_unicode": "U+1F1EC U+1F1EC",
      "svg": "https://flagcdn.com/gg.svg"
    }
  },
  "SD": {
    "name": "Sudan",
    "calling_code": "+249",
    "capital": "Khartoum",
    "borders": [
      "CF",
      "TD",
      "EG",
      "ER",
      "ET",
      "LY",
      "SS"
    ],
    "flag": {
      "emoji": "ðŸ‡¸ðŸ‡©",
      "emoji_unicode": "U+1F1F8 U+1F1E9",
      "svg": "https://flagcdn.com/sd.svg"
    }
  },
  "YT": {
    "name": "Mayotte",
    "calling_code": "+262",
    "capital": "Mamoudzou",
    "borders": [],
    "flag": {
      "emoji": "ðŸ‡¾ðŸ‡¹",
      "emoji_unicode": "U+1F1FE U+1F1F9",
      "svg": "https://flagcdn.com/yt.svg"
    }
  },
  "BL": {
    "name": "Saint BarthÃ©lemy",
    "calling_code": "+590",
    "capital": "Gustavia",
    "borders": [],
    "flag": {
      "emoji": "ðŸ‡§ðŸ‡±",
      "emoji_unicode": "U+1F1E7 U+1F1F1",
      "svg": "https://flagcdn.com/bl.svg"
    }
  },
  "VA": {
    "name": "Vatican City",
    "calling_code": "+3906698",
    "capital": "Vatican City",
    "borders": [
      "IT"
    ],
    "flag": {
      "emoji": "ðŸ‡»ðŸ‡¦",
      "emoji_unicode": "U+1F1FB U+1F1E6",
      "svg": "https://flagcdn.com/va.svg"
    }
  },
  "TC": {
    "name": "Turks and Caicos Islands",
    "calling_code": "+1649",
    "capital": "Cockburn Town",
    "borders": [],
    "flag": {
      "emoji": "ðŸ‡¹ðŸ‡¨",
      "emoji_unicode": "U+1F1F9 U+1F1E8",
      "svg": "https://flagcdn.com/tc.svg"
    }
  },
  "CW": {
    "name": "CuraÃ§ao",
    "calling_code": "+599",
    "capital": "Willemstad",
    "borders": [],
    "flag": {
      "emoji": "ðŸ‡¨ðŸ‡¼",
      "emoji_unicode": "U+1F1E8 U+1F1FC",
      "svg": "https://flagcdn.com/cw.svg"
    }
  },
  "BW": {
    "name": "Botswana",
    "calling_code": "+267",
    "capital": "Gaborone",
    "borders": [
      "NA",
      "ZA",
      "ZM",
      "ZW"
    ],
    "flag": {
      "emoji": "ðŸ‡§ðŸ‡¼",
      "emoji_unicode": "U+1F1E7 U+1F1FC",
      "svg": "https://flagcdn.com/bw.svg"
    }
  },
  "BJ": {
    "name": "Benin",
    "calling_code": "+229",
    "capital": "Porto-Novo",
    "borders": [
      "BF",
      "NE",
      "NG",
      "TG"
    ],
    "flag": {
      "emoji": "ðŸ‡§ðŸ‡¯",
      "emoji_unicode": "U+1F1E7 U+1F1EF",
      "svg": "https://flagcdn.com/bj.svg"
    }
  },
  "LT": {
    "name": "Lithuania",
    "calling_code": "+370",
    "capital": "Vilnius",
    "borders": [
      "BY",
      "LV",
      "PL",
      "RU"
    ],
    "flag": {
      "emoji": "ðŸ‡±ðŸ‡¹",
      "emoji_unicode": "U+1F1F1 U+1F1F9",
      "svg": "https://flagcdn.com/lt.svg"
    }
  },
  "MS": {
    "name": "Montserrat",
    "calling_code": "+1664",
    "capital": "Plymouth",
    "borders": [],
    "flag": {
      "emoji": "ðŸ‡²ðŸ‡¸",
      "emoji_unicode": "U+1F1F2 U+1F1F8",
      "svg": "https://flagcdn.com/ms.svg"
    }
  },
  "VG": {
    "name": "British Virgin Islands",
    "calling_code": "+1284",
    "capital": "Road Town",
    "borders": [],
    "flag": {
      "emoji": "ðŸ‡»ðŸ‡¬",
      "emoji_unicode": "U+1F1FB U+1F1EC",
      "svg": "https://flagcdn.com/vg.svg"
    }
  },
  "BI": {
    "name": "Burundi",
    "calling_code": "+257",
    "capital": "Gitega",
    "borders": [
      "CD",
      "RW",
      "TZ"
    ],
    "flag": {
      "emoji": "ðŸ‡§ðŸ‡®",
      "emoji_unicode": "U+1F1E7 U+1F1EE",
      "svg": "https://flagcdn.com/bi.svg"
    }
  },
  "UM": {
    "name": "United States Minor Outlying Islands",
    "calling_code": "+268",
    "capital": "Washington DC",
    "borders": [],
    "flag": {
      "emoji": "ðŸ‡ºðŸ‡²",
      "emoji_unicode": "U+1F1FA U+1F1F2",
      "svg": "https://flagcdn.com/um.svg"
    }
  },
  "IE": {
    "name": "Ireland",
    "calling_code": "+353",
    "capital": "Dublin",
    "borders": [
      "GB"
    ],
    "flag": {
      "emoji": "ðŸ‡®ðŸ‡ª",
      "emoji_unicode": "U+1F1EE U+1F1EA",
      "svg": "https://flagcdn.com/ie.svg"
    }
  },
  "SB": {
    "name": "Solomon Islands",
    "calling_code": "+677",
    "capital": "Honiara",
    "borders": [],
    "flag": {
      "emoji": "ðŸ‡¸ðŸ‡§",
      "emoji_unicode": "U+1F1F8 U+1F1E7",
      "svg": "https://flagcdn.com/sb.svg"
    }
  },
  "BM": {
    "name": "Bermuda",
    "calling_code": "+1441",
    "capital": "Hamilton",
    "borders": [],
    "flag": {
      "emoji": "ðŸ‡§ðŸ‡²",
      "emoji_unicode": "U+1F1E7 U+1F1F2",
      "svg": "https://flagcdn.com/bm.svg"
    }
  },
  "FI": {
    "name": "Finland",
    "calling_code": "+358",
    "capital": "Helsinki",
    "borders": [
      "NO",
      "SE",
      "RU"
    ],
    "flag": {
      "emoji": "ðŸ‡«ðŸ‡®",
      "emoji_unicode": "U+1F1EB U+1F1EE",
      "svg": "https://flagcdn.com/fi.svg"
    }
  },
  "PE": {
    "name": "Peru",
    "calling_code": "+51",
    "capital": "Lima",
    "borders": [
      "BO",
      "BR",
      "CL",
      "CO",
      "EC"
    ],
    "flag": {
      "emoji": "ðŸ‡µðŸ‡ª",
      "emoji_unicode": "U+1F1F5 U+1F1EA",
      "svg": "https://flagcdn.com/pe.svg"
    }
  },
  "BD": {
    "name": "Bangladesh",
    "calling_code": "+880",
    "capital": "Dhaka",
    "borders": [
      "MM",
      "IN"
    ],
    "flag": {
      "emoji": "ðŸ‡§ðŸ‡©",
      "emoji_unicode": "U+1F1E7 U+1F1E9",
      "svg": "https://flagcdn.com/bd.svg"
    }
  },
  "DK": {
    "name": "Denmark",
    "calling_code": "+45",
    "capital": "Copenhagen",
    "borders": [
      "DE"
    ],
    "flag": {
      "emoji": "ðŸ‡©ðŸ‡°",
      "emoji_unicode": "U+1F1E9 U+1F1F0",
      "svg": "https://flagcdn.com/dk.svg"
    }
  },
  "VC": {
    "name": "Saint Vincent and the Grenadines",
    "calling_code": "+1784",
    "capital": "Kingstown",
    "borders": [],
    "flag": {
      "emoji": "ðŸ‡»ðŸ‡¨",
      "emoji_unicode": "U+1F1FB U+1F1E8",
      "svg": "https://flagcdn.com/vc.svg"
    }
  },
  "DO": {
    "name": "Dominican Republic",
    "calling_code": "+1809",
    "capital": "Santo Domingo",
    "borders": [
      "HT"
    ],
    "flag": {
      "emoji": "ðŸ‡©ðŸ‡´",
      "emoji_unicode": "U+1F1E9 U+1F1F4",
      "svg": "https://flagcdn.com/do.svg"
    }
  },
  "MD": {
    "name": "Moldova",
    "calling_code": "+373",
    "capital": "ChiÈ™inÄƒu",
    "borders": [
      "RO",
      "UA"
    ],
    "flag": {
      "emoji": "ðŸ‡²ðŸ‡©",
      "emoji_unicode": "U+1F1F2 U+1F1E9",
      "svg": "https://flagcdn.com/md.svg"
    }
  },
  "BG": {
    "name": "Bulgaria",
    "calling_code": "+359",
    "capital": "Sofia",
    "borders": [
      "GR",
      "MK",
      "RO",
      "RS",
      "TR"
    ],
    "flag": {
      "emoji": "ðŸ‡§ðŸ‡¬",
      "emoji_unicode": "U+1F1E7 U+1F1EC",
      "svg": "https://flagcdn.com/bg.svg"
    }
  },
  "CR": {
    "name": "Costa Rica",
    "calling_code": "+506",
    "capital": "San JosÃ©",
    "borders": [
      "NI",
      "PA"
    ],
    "flag": {
      "emoji": "ðŸ‡¨ðŸ‡·",
      "emoji_unicode": "U+1F1E8 U+1F1F7",
      "svg": "https://flagcdn.com/cr.svg"
    }
  },
  "NA": {
    "name": "Namibia",
    "calling_code": "+264",
    "capital": "Windhoek",
    "borders": [
      "AO",
      "BW",
      "ZA",
      "ZM"
    ],
    "flag": {
      "emoji": "ðŸ‡³ðŸ‡¦",
      "emoji_unicode": "U+1F1F3 U+1F1E6",
      "svg": "https://flagcdn.com/na.svg"
    }
  },
  "SJ": {
    "name": "Svalbard and Jan Mayen",
    "calling_code": "+4779",
    "capital": "Longyearbyen",
    "borders": [],
    "flag": {
      "emoji": "ðŸ‡¸ðŸ‡¯",
      "emoji_unicode": "U+1F1F8 U+1F1EF",
      "svg": "https://flagcdn.com/sj.svg"
    }
  },
  "LU": {
    "name": "Luxembourg",
    "calling_code": "+352",
    "capital": "Luxembourg",
    "borders": [
      "BE",
      "FR",
      "DE"
    ],
    "flag": {
      "emoji": "ðŸ‡±ðŸ‡º",
      "emoji_unicode": "U+1F1F1 U+1F1FA",
      "svg": "https://flagcdn.com/lu.svg"
    }
  },
  "RU": {
    "name": "Russia",
    "calling_code": "+73",
    "capital": "Moscow",
    "borders": [
      "AZ",
      "BY",
      "CN",
      "EE",
      "FI",
      "GE",
      "KZ",
      "KP",
      "LV",
      "LT",
      "MN",
      "NO",
      "PL",
      "UA"
    ],
    "flag": {
      "emoji": "ðŸ‡·ðŸ‡º",
      "emoji_unicode": "U+1F1F7 U+1F1FA",
      "svg": "https://flagcdn.com/ru.svg"
    }
  },
  "AE": {
    "name": "United Arab Emirates",
    "calling_code": "+971",
    "capital": "Abu Dhabi",
    "borders": [
      "OM",
      "SA"
    ],
    "flag": {
      "emoji": "ðŸ‡¦ðŸ‡ª",
      "emoji_unicode": "U+1F1E6 U+1F1EA",
      "svg": "https://flagcdn.com/ae.svg"
    }
  },
  "SX": {
    "name": "Sint Maarten",
    "calling_code": "+1721",
    "capital": "Philipsburg",
    "borders": [
      "MF"
    ],
    "flag": {
      "emoji": "ðŸ‡¸ðŸ‡½",
      "emoji_unicode": "U+1F1F8 U+1F1FD",
      "svg": "https://flagcdn.com/sx.svg"
    }
  },
  "BS": {
    "name": "Bahamas",
    "calling_code": "+1242",
    "capital": "Nassau",
    "borders": [],
    "flag": {
      "emoji": "ðŸ‡§ðŸ‡¸",
      "emoji_unicode": "U+1F1E7 U+1F1F8",
      "svg": "https://flagcdn.com/bs.svg"
    }
  },
  "JP": {
    "name": "Japan",
    "calling_code": "+81",
    "capital": "Tokyo",
    "borders": [],
    "flag": {
      "emoji": "ðŸ‡¯ðŸ‡µ",
      "emoji_unicode": "U+1F1EF U+1F1F5",
      "svg": "https://flagcdn.com/jp.svg"
    }
  },
  "NG": {
    "name": "Nigeria",
    "calling_code": "+234",
    "capital": "Abuja",
    "borders": [
      "BJ",
      "CM",
      "TD",
      "NE"
    ],
    "flag": {
      "emoji": "ðŸ‡³ðŸ‡¬",
      "emoji_unicode": "U+1F1F3 U+1F1EC",
      "svg": "https://flagcdn.com/ng.svg"
    }
  },
  "GH": {
    "name": "Ghana",
    "calling_code": "+233",
    "capital": "Accra",
    "borders": [
      "BF",
      "CI",
      "TG"
    ],
    "flag": {
      "emoji": "ðŸ‡¬ðŸ‡­",
      "emoji_unicode": "U+1F1EC U+1F1ED",
      "svg": "https://flagcdn.com/gh.svg"
    }
  },
  "SL": {
    "name": "Sierra Leone",
    "calling_code": "+232",
    "capital": "Freetown",
    "borders": [
      "GN",
      "LR"
    ],
    "flag": {
      "emoji": "ðŸ‡¸ðŸ‡±",
      "emoji_unicode": "U+1F1F8 U+1F1F1",
      "svg": "https://flagcdn.com/sl.svg"
    }
  },
  "PM": {
    "name": "Saint Pierre and Miquelon",
    "calling_code": "+508",
    "capital": "Saint-Pierre",
    "borders": [],
    "flag": {
      "emoji": "ðŸ‡µðŸ‡²",
      "emoji_unicode": "U+1F1F5 U+1F1F2",
      "svg": "https://flagcdn.com/pm.svg"
    }
  },
  "AL": {
    "name": "Albania",
    "calling_code": "+355",
    "capital": "Tirana",
    "borders": [
      "ME",
      "GR",
      "MK",
      "XK"
    ],
    "flag": {
      "emoji": "ðŸ‡¦ðŸ‡±",
      "emoji_unicode": "U+1F1E6 U+1F1F1",
      "svg": "https://flagcdn.com/al.svg"
    }
  },
  "TK": {
    "name": "Tokelau",
    "calling_code": "+690",
    "capital": "Fakaofo",
    "borders": [],
    "flag": {
      "emoji": "ðŸ‡¹ðŸ‡°",
      "emoji_unicode": "U+1F1F9 U+1F1F0",
      "svg": "https://flagcdn.com/tk.svg"
    }
  },
  "SH": {
    "name": "Saint Helena, Ascension and Tristan da Cunha",
    "calling_code": "+290",
    "capital": "Jamestown",
    "borders": [],
    "flag": {
      "emoji": "ðŸ‡¸ðŸ‡­",
      "emoji_unicode": "U+1F1F8 U+1F1ED",
      "svg": "https://flagcdn.com/sh.svg"
    }
  },
  "TO": {
    "name": "Tonga",
    "calling_code": "+676",
    "capital": "Nuku'alofa",
    "borders": [],
    "flag": {
      "emoji": "ðŸ‡¹ðŸ‡´",
      "emoji_unicode": "U+1F1F9 U+1F1F4",
      "svg": "https://flagcdn.com/to.svg"
    }
  },
  "TM": {
    "name": "Turkmenistan",
    "calling_code": "+993",
    "capital": "Ashgabat",
    "borders": [
      "AF",
      "IR",
      "KZ",
      "UZ"
    ],
    "flag": {
      "emoji": "ðŸ‡¹ðŸ‡²",
      "emoji_unicode": "U+1F1F9 U+1F1F2",
      "svg": "https://flagcdn.com/tm.svg"
    }
  },
  "DJ": {
    "name": "Djibouti",
    "calling_code": "+253",
    "capital": "Djibouti",
    "borders": [
      "ER",
      "ET",
      "SO"
    ],
    "flag": {
      "emoji": "ðŸ‡©ðŸ‡¯",
      "emoji_unicode": "U+1F1E9 U+1F1EF",
      "svg": "https://flagcdn.com/dj.svg"
    }
  },
  "CF": {
    "name": "Central African Republic",
    "calling_code": "+236",
    "capital": "Bangui",
    "borders": [
      "CM",
      "TD",
      "CD",
      "CG",
      "SS",
      "SD"
    ],
    "flag": {
      "emoji": "ðŸ‡¨ðŸ‡«",
      "emoji_unicode": "U+1F1E8 U+1F1EB",
      "svg": "https://flagcdn.com/cf.svg"
    }
  },
  "LB": {
    "name": "Lebanon",
    "calling_code": "+961",
    "capital": "Beirut",
    "borders": [
      "IL",
      "SY"
    ],
    "flag": {
      "emoji": "ðŸ‡±ðŸ‡§",
      "emoji_unicode": "U+1F1F1 U+1F1E7",
      "svg": "https://flagcdn.com/lb.svg"
    }
  },
  "LV": {
    "name": "Latvia",
    "calling_code": "+371",
    "capital": "Riga",
    "borders": [
      "BY",
      "EE",
      "LT",
      "RU"
    ],
    "flag": {
      "emoji": "ðŸ‡±ðŸ‡»",
      "emoji_unicode": "U+1F1F1 U+1F1FB",
      "svg": "https://flagcdn.com/lv.svg"
    }
  },
  "CC": {
    "name": "Cocos (Keeling) Islands",
    "calling_code": "+61",
    "capital": "West Island",
    "borders": [],
    "flag": {
      "emoji": "ðŸ‡¨ðŸ‡¨",
      "emoji_unicode": "U+1F1E8 U+1F1E8",
      "svg": "https://flagcdn.com/cc.svg"
    }
  },
  "GM": {
    "name": "Gambia",
    "calling_code": "+220",
    "capital": "Banjul",
    "borders": [
      "SN"
    ],
    "flag": {
      "emoji": "ðŸ‡¬ðŸ‡²",
      "emoji_unicode": "U+1F1EC U+1F1F2",
      "svg": "https://flagcdn.com/gm.svg"
    }
  },
  "HN": {
    "name": "Honduras",
    "calling_code": "+504",
    "capital": "Tegucigalpa",
    "borders": [
      "GT",
      "SV",
      "NI"
    ],
    "flag": {
      "emoji": "ðŸ‡­ðŸ‡³",
      "emoji_unicode": "U+1F1ED U+1F1F3",
      "svg": "https://flagcdn.com/hn.svg"
    }
  },
  "NU": {
    "name": "Niue",
    "calling_code": "+683",
    "capital": "Alofi",
    "borders": [],
    "flag": {
      "emoji": "ðŸ‡³ðŸ‡º",
      "emoji_unicode": "U+1F1F3 U+1F1FA",
      "svg": "https://flagcdn.com/nu.svg"
    }
  },
  "MR": {
    "name": "Mauritania",
    "calling_code": "+222",
    "capital": "Nouakchott",
    "borders": [
      "DZ",
      "ML",
      "SN",
      "EH"
    ],
    "flag": {
      "emoji": "ðŸ‡²ðŸ‡·",
      "emoji_unicode": "U+1F1F2 U+1F1F7",
      "svg": "https://flagcdn.com/mr.svg"
    }
  },
  "XK": {
    "name": "Kosovo",
    "calling_code": "+383",
    "capital": "Pristina",
    "borders": [
      "AL",
      "MK",
      "ME",
      "RS"
    ],
    "flag": {
      "emoji": "ðŸ‡½ðŸ‡°",
      "emoji_unicode": "U+1F1FD U+1F1F0",
      "svg": "https://flagcdn.com/xk.svg"
    }
  },
  "WF": {
    "name": "Wallis and Futuna",
    "calling_code": "+681",
    "capital": "Mata-Utu",
    "borders": [],
    "flag": {
      "emoji": "ðŸ‡¼ðŸ‡«",
      "emoji_unicode": "U+1F1FC U+1F1EB",
      "svg": "https://flagcdn.com/wf.svg"
    }
  },
  "GS": {
    "name": "South Georgia",
    "calling_code": "+500",
    "capital": "King Edward Point",
    "borders": [],
    "flag": {
      "emoji": "ðŸ‡¬ðŸ‡¸",
      "emoji_unicode": "U+1F1EC U+1F1F8",
      "svg": "https://flagcdn.com/gs.svg"
    }
  },
  "PF": {
    "name": "French Polynesia",
    "calling_code": "+689",
    "capital": "PapeetÄ“",
    "borders": [],
    "flag": {
      "emoji": "ðŸ‡µðŸ‡«",
      "emoji_unicode": "U+1F1F5 U+1F1EB",
      "svg": "https://flagcdn.com/pf.svg"
    }
  },
  "TG": {
    "name": "Togo",
    "calling_code": "+228",
    "capital": "LomÃ©",
    "borders": [
      "BJ",
      "BF",
      "GH"
    ],
    "flag": {
      "emoji": "ðŸ‡¹ðŸ‡¬",
      "emoji_unicode": "U+1F1F9 U+1F1EC",
      "svg": "https://flagcdn.com/tg.svg"
    }
  },
  "BE": {
    "name": "Belgium",
    "calling_code": "+32",
    "capital": "Brussels",
    "borders": [
      "FR",
      "DE",
      "LU",
      "NL"
    ],
    "flag": {
      "emoji": "ðŸ‡§ðŸ‡ª",
      "emoji_unicode": "U+1F1E7 U+1F1EA",
      "svg": "https://flagcdn.com/be.svg"
    }
  },
  "ZM": {
    "name": "Zambia",
    "calling_code": "+260",
    "capital": "Lusaka",
    "borders": [
      "AO",
      "BW",
      "CD",
      "MW",
      "MZ",
      "NA",
      "TZ",
      "ZW"
    ],
    "flag": {
      "emoji": "ðŸ‡¿ðŸ‡²",
      "emoji_unicode": "U+1F1FF U+1F1F2",
      "svg": "https://flagcdn.com/zm.svg"
    }
  },
  "KY": {
    "name": "Cayman Islands",
    "calling_code": "+1345",
    "capital": "George Town",
    "borders": [],
    "flag": {
      "emoji": "ðŸ‡°ðŸ‡¾",
      "emoji_unicode": "U+1F1F0 U+1F1FE",
      "svg": "https://flagcdn.com/ky.svg"
    }
  },
  "PN": {
    "name": "Pitcairn Islands",
    "calling_code": "+64",
    "capital": "Adamstown",
    "borders": [],
    "flag": {
      "emoji": "ðŸ‡µðŸ‡³",
      "emoji_unicode": "U+1F1F5 U+1F1F3",
      "svg": "https://flagcdn.com/pn.svg"
    }
  },
  "CK": {
    "name": "Cook Islands",
    "calling_code": "+682",
    "capital": "Avarua",
    "borders": [],
    "flag": {
      "emoji": "ðŸ‡¨ðŸ‡°",
      "emoji_unicode": "U+1F1E8 U+1F1F0",
      "svg": "https://flagcdn.com/ck.svg"
    }
  },
  "MG": {
    "name": "Madagascar",
    "calling_code": "+261",
    "capital": "Antananarivo",
    "borders": [],
    "flag": {
      "emoji": "ðŸ‡²ðŸ‡¬",
      "emoji_unicode": "U+1F1F2 U+1F1EC",
      "svg": "https://flagcdn.com/mg.svg"
    }
  },
  "ME": {
    "name": "Montenegro",
    "calling_code": "+382",
    "capital": "Podgorica",
    "borders": [
      "AL",
      "BA",
      "HR",
      "XK",
      "RS"
    ],
    "flag": {
      "emoji": "ðŸ‡²ðŸ‡ª",
      "emoji_unicode": "U+1F1F2 U+1F1EA",
      "svg": "https://flagcdn.com/me.svg"
    }
  },
  "KR": {
    "name": "South Korea",
    "calling_code": "+82",
    "capital": "Seoul",
    "borders": [
      "KP"
    ],
    "flag": {
      "emoji": "ðŸ‡°ðŸ‡·",
      "emoji_unicode": "U+1F1F0 U+1F1F7",
      "svg": "https://flagcdn.com/kr.svg"
    }
  },
  "ET": {
    "name": "Ethiopia",
    "calling_code": "+251",
    "capital": "Addis Ababa",
    "borders": [
      "DJ",
      "ER",
      "KE",
      "SO",
      "SS",
      "SD"
    ],
    "flag": {
      "emoji": "ðŸ‡ªðŸ‡¹",
      "emoji_unicode": "U+1F1EA U+1F1F9",
      "svg": "https://flagcdn.com/et.svg"
    }
  },
  "MN": {
    "name": "Mongolia",
    "calling_code": "+976",
    "capital": "Ulan Bator",
    "borders": [
      "CN",
      "RU"
    ],
    "flag": {
      "emoji": "ðŸ‡²ðŸ‡³",
      "emoji_unicode": "U+1F1F2 U+1F1F3",
      "svg": "https://flagcdn.com/mn.svg"
    }
  },
  "SK": {
    "name": "Slovakia",
    "calling_code": "+421",
    "capital": "Bratislava",
    "borders": [
      "AT",
      "CZ",
      "HU",
      "PL",
      "UA"
    ],
    "flag": {
      "emoji": "ðŸ‡¸ðŸ‡°",
      "emoji_unicode": "U+1F1F8 U+1F1F0",
      "svg": "https://flagcdn.com/sk.svg"
    }
  },
  "CU": {
    "name": "Cuba",
    "calling_code": "+53",
    "capital": "Havana",
    "borders": [],
    "flag": {
      "emoji": "ðŸ‡¨ðŸ‡º",
      "emoji_unicode": "U+1F1E8 U+1F1FA",
      "svg": "https://flagcdn.com/cu.svg"
    }
  },
  "AQ": {
    "name": "Antarctica",
    "calling_code": null,
    "capital": null,
    "borders": [],
    "flag": {
      "emoji": "ðŸ‡¦ðŸ‡¶",
      "emoji_unicode": "U+1F1E6 U+1F1F6",
      "svg": "https://flagcdn.com/aq.svg"
    }
  },
  "GT": {
    "name": "Guatemala",
    "calling_code": "+502",
    "capital": "Guatemala City",
    "borders": [
      "BZ",
      "SV",
      "HN",
      "MX"
    ],
    "flag": {
      "emoji": "ðŸ‡¬ðŸ‡¹",
      "emoji_unicode": "U+1F1EC U+1F1F9",
      "svg": "https://flagcdn.com/gt.svg"
    }
  },
  "GF": {
    "name": "French Guiana",
    "calling_code": "+594",
    "capital": "Cayenne",
    "borders": [
      "BR",
      "SR"
    ],
    "flag": {
      "emoji": "ðŸ‡¬ðŸ‡«",
      "emoji_unicode": "U+1F1EC U+1F1EB",
      "svg": "https://flagcdn.com/gf.svg"
    }
  },
  "NO": {
    "name": "Norway",
    "calling_code": "+47",
    "capital": "Oslo",
    "borders": [
      "FI",
      "SE",
      "RU"
    ],
    "flag": {
      "emoji": "ðŸ‡³ðŸ‡´",
      "emoji_unicode": "U+1F1F3 U+1F1F4",
      "svg": "https://flagcdn.com/no.svg"
    }
  },
  "GD": {
    "name": "Grenada",
    "calling_code": "+1473",
    "capital": "St. George's",
    "borders": [],
    "flag": {
      "emoji": "ðŸ‡¬ðŸ‡©",
      "emoji_unicode": "U+1F1EC U+1F1E9",
      "svg": "https://flagcdn.com/gd.svg"
    }
  },
  "RE": {
    "name": "RÃ©union",
    "calling_code": "+262",
    "capital": "Saint-Denis",
    "borders": [],
    "flag": {
      "emoji": "ðŸ‡·ðŸ‡ª",
      "emoji_unicode": "U+1F1F7 U+1F1EA",
      "svg": "https://flagcdn.com/re.svg"
    }
  },
  "CL": {
    "name": "Chile",
    "calling_code": "+56",
    "capital": "Santiago",
    "borders": [
      "AR",
      "BO",
      "PE"
    ],
    "flag": {
      "emoji": "ðŸ‡¨ðŸ‡±",
      "emoji_unicode": "U+1F1E8 U+1F1F1",
      "svg": "https://flagcdn.com/cl.svg"
    }
  },
  "CO": {
    "name": "Colombia",
    "calling_code": "+57",
    "capital": "BogotÃ¡",
    "borders": [
      "BR",
      "EC",
      "PA",
      "PE",
      "VE"
    ],
    "flag": {
      "emoji": "ðŸ‡¨ðŸ‡´",
      "emoji_unicode": "U+1F1E8 U+1F1F4",
      "svg": "https://flagcdn.com/co.svg"
    }
  },
  "SA": {
    "name": "Saudi Arabia",
    "calling_code": "+966",
    "capital": "Riyadh",
    "borders": [
      "IQ",
      "JO",
      "KW",
      "OM",
      "QA",
      "AE",
      "YE"
    ],
    "flag": {
      "emoji": "ðŸ‡¸ðŸ‡¦",
      "emoji_unicode": "U+1F1F8 U+1F1E6",
      "svg": "https://flagcdn.com/sa.svg"
    }
  },
  "IL": {
    "name": "Israel",
    "calling_code": "+972",
    "capital": "Jerusalem",
    "borders": [
      "EG",
      "JO",
      "LB",
      "PS",
      "SY"
    ],
    "flag": {
      "emoji": "ðŸ‡®ðŸ‡±",
      "emoji_unicode": "U+1F1EE U+1F1F1",
      "svg": "https://flagcdn.com/il.svg"
    }
  },
  "DE": {
    "name": "Germany",
    "calling_code": "+49",
    "capital": "Berlin",
    "borders": [
      "AT",
      "BE",
      "CZ",
      "DK",
      "FR",
      "LU",
      "NL",
      "PL",
      "CH"
    ],
    "flag": {
      "emoji": "ðŸ‡©ðŸ‡ª",
      "emoji_unicode": "U+1F1E9 U+1F1EA",
      "svg": "https://flagcdn.com/de.svg"
    }
  },
  "NZ": {
    "name": "New Zealand",
    "calling_code": "+64",
    "capital": "Wellington",
    "borders": [],
    "flag": {
      "emoji": "ðŸ‡³ðŸ‡¿",
      "emoji_unicode": "U+1F1F3 U+1F1FF",
      "svg": "https://flagcdn.com/nz.svg"
    }
  },
  "GL": {
    "name": "Greenland",
    "calling_code": "+299",
    "capital": "Nuuk",
    "borders": [],
    "flag": {
      "emoji": "ðŸ‡¬ðŸ‡±",
      "emoji_unicode": "U+1F1EC U+1F1F1",
      "svg": "https://flagcdn.com/gl.svg"
    }
  },
  "KG": {
    "name": "Kyrgyzstan",
    "calling_code": "+996",
    "capital": "Bishkek",
    "borders": [
      "CN",
      "KZ",
      "TJ",
      "UZ"
    ],
    "flag": {
      "emoji": "ðŸ‡°ðŸ‡¬",
      "emoji_unicode": "U+1F1F0 U+1F1EC",
      "svg": "https://flagcdn.com/kg.svg"
    }
  },
  "SV": {
    "name": "El Salvador",
    "calling_code": "+503",
    "capital": "San Salvador",
    "borders": [
      "GT",
      "HN"
    ],
    "flag": {
      "emoji": "ðŸ‡¸ðŸ‡»",
      "emoji_unicode": "U+1F1F8 U+1F1FB",
      "svg": "https://flagcdn.com/sv.svg"
    }
  },
  "FO": {
    "name": "Faroe Islands",
    "calling_code": "+298",
    "capital": "TÃ³rshavn",
    "borders": [],
    "flag": {
      "emoji": "ðŸ‡«ðŸ‡´",
      "emoji_unicode": "U+1F1EB U+1F1F4",
      "svg": "https://flagcdn.com/fo.svg"
    }
  },
  "PW": {
    "name": "Palau",
    "calling_code": "+680",
    "capital": "Ngerulmud",
    "borders": [],
    "flag": {
      "emoji": "ðŸ‡µðŸ‡¼",
      "emoji_unicode": "U+1F1F5 U+1F1FC",
      "svg": "https://flagcdn.com/pw.svg"
    }
  },
  "MT": {
    "name": "Malta",
    "calling_code": "+356",
    "capital": "Valletta",
    "borders": [],
    "flag": {
      "emoji": "ðŸ‡²ðŸ‡¹",
      "emoji_unicode": "U+1F1F2 U+1F1F9",
      "svg": "https://flagcdn.com/mt.svg"
    }
  },
  "SY": {
    "name": "Syria",
    "calling_code": "+963",
    "capital": "Damascus",
    "borders": [
      "IQ",
      "IL",
      "JO",
      "LB",
      "TR"
    ],
    "flag": {
      "emoji": "ðŸ‡¸ðŸ‡¾",
      "emoji_unicode": "U+1F1F8 U+1F1FE",
      "svg": "https://flagcdn.com/sy.svg"
    }
  },
  "TL": {
    "name": "Timor-Leste",
    "calling_code": "+670",
    "capital": "Dili",
    "borders": [
      "ID"
    ],
    "flag": {
      "emoji": "ðŸ‡¹ðŸ‡±",
      "emoji_unicode": "U+1F1F9 U+1F1F1",
      "svg": "https://flagcdn.com/tl.svg"
    }
  },
  "HR": {
    "name": "Croatia",
    "calling_code": "+385",
    "capital": "Zagreb",
    "borders": [
      "BA",
      "HU",
      "ME",
      "RS",
      "SI"
    ],
    "flag": {
      "emoji": "ðŸ‡­ðŸ‡·",
      "emoji_unicode": "U+1F1ED U+1F1F7",
      "svg": "https://flagcdn.com/hr.svg"
    }
  },
  "PG": {
    "name": "Papua New Guinea",
    "calling_code": "+675",
    "capital": "Port Moresby",
    "borders": [
      "ID"
    ],
    "flag": {
      "emoji": "ðŸ‡µðŸ‡¬",
      "emoji_unicode": "U+1F1F5 U+1F1EC",
      "svg": "https://flagcdn.com/pg.svg"
    }
  },
  "NL": {
    "name": "Netherlands",
    "calling_code": "+31",
    "capital": "Amsterdam",
    "borders": [
      "BE",
      "DE"
    ],
    "flag": {
      "emoji": "ðŸ‡³ðŸ‡±",
      "emoji_unicode": "U+1F1F3 U+1F1F1",
      "svg": "https://flagcdn.com/nl.svg"
    }
  },
  "LR": {
    "name": "Liberia",
    "calling_code": "+231",
    "capital": "Monrovia",
    "borders": [
      "GN",
      "CI",
      "SL"
    ],
    "flag": {
      "emoji": "ðŸ‡±ðŸ‡·",
      "emoji_unicode": "U+1F1F1 U+1F1F7",
      "svg": "https://flagcdn.com/lr.svg"
    }
  },
  "SO": {
    "name": "Somalia",
    "calling_code": "+252",
    "capital": "Mogadishu",
    "borders": [
      "DJ",
      "ET",
      "KE"
    ],
    "flag": {
      "emoji": "ðŸ‡¸ðŸ‡´",
      "emoji_unicode": "U+1F1F8 U+1F1F4",
      "svg": "https://flagcdn.com/so.svg"
    }
  },
  "VE": {
    "name": "Venezuela",
    "calling_code": "+58",
    "capital": "Caracas",
    "borders": [
      "BR",
      "CO",
      "GY"
    ],
    "flag": {
      "emoji": "ðŸ‡»ðŸ‡ª",
      "emoji_unicode": "U+1F1FB U+1F1EA",
      "svg": "https://flagcdn.com/ve.svg"
    }
  },
  "HT": {
    "name": "Haiti",
    "calling_code": "+509",
    "capital": "Port-au-Prince",
    "borders": [
      "DO"
    ],
    "flag": {
      "emoji": "ðŸ‡­ðŸ‡¹",
      "emoji_unicode": "U+1F1ED U+1F1F9",
      "svg": "https://flagcdn.com/ht.svg"
    }
  },
  "DZ": {
    "name": "Algeria",
    "calling_code": "+213",
    "capital": "Algiers",
    "borders": [
      "TN",
      "LY",
      "NE",
      "EH",
      "MR",
      "ML",
      "MA"
    ],
    "flag": {
      "emoji": "ðŸ‡©ðŸ‡¿",
      "emoji_unicode": "U+1F1E9 U+1F1FF",
      "svg": "https://flagcdn.com/dz.svg"
    }
  },
  "MP": {
    "name": "Northern Mariana Islands",
    "calling_code": "+1670",
    "capital": "Saipan",
    "borders": [],
    "flag": {
      "emoji": "ðŸ‡²ðŸ‡µ",
      "emoji_unicode": "U+1F1F2 U+1F1F5",
      "svg": "https://flagcdn.com/mp.svg"
    }
  },
  "MF": {
    "name": "Saint Martin",
    "calling_code": "+590",
    "capital": "Marigot",
    "borders": [
      "SX"
    ],
    "flag": {
      "emoji": "ðŸ‡²ðŸ‡«",
      "emoji_unicode": "U+1F1F2 U+1F1EB",
      "svg": "https://flagcdn.com/mf.svg"
    }
  },
  "HM": {
    "name": "Heard Island and McDonald Islands",
    "calling_code": null,
    "capital": null,
    "borders": [],
    "flag": {
      "emoji": "ðŸ‡­ðŸ‡²",
      "emoji_unicode": "U+1F1ED U+1F1F2",
      "svg": "https://flagcdn.com/hm.svg"
    }
  },
  "AW": {
    "name": "Aruba",
    "calling_code": "+297",
    "capital": "Oranjestad",
    "borders": [],
    "flag": {
      "emoji": "ðŸ‡¦ðŸ‡¼",
      "emoji_unicode": "U+1F1E6 U+1F1FC",
      "svg": "https://flagcdn.com/aw.svg"
    }
  },
  "EG": {
    "name": "Egypt",
    "calling_code": "+20",
    "capital": "Cairo",
    "borders": [
      "IL",
      "LY",
      "PS",
      "SD"
    ],
    "flag": {
      "emoji": "ðŸ‡ªðŸ‡¬",
      "emoji_unicode": "U+1F1EA U+1F1EC",
      "svg": "https://flagcdn.com/eg.svg"
    }
  },
  "MW": {
    "name": "Malawi",
    "calling_code": "+265",
    "capital": "Lilongwe",
    "borders": [
      "MZ",
      "TZ",
      "ZM"
    ],
    "flag": {
      "emoji": "ðŸ‡²ðŸ‡¼",
      "emoji_unicode": "U+1F1F2 U+1F1FC",
      "svg": "https://flagcdn.com/mw.svg"
    }
  },
  "GQ": {
    "name": "Equatorial Guinea",
    "calling_code": "+240",
    "capital": "Malabo",
    "borders": [
      "CM",
      "GA"
    ],
    "flag": {
      "emoji": "ðŸ‡¬ðŸ‡¶",
      "emoji_unicode": "U+1F1EC U+1F1F6",
      "svg": "https://flagcdn.com/gq.svg"
    }
  },
  "VI": {
    "name": "United States Virgin Islands",
    "calling_code": "+1340",
    "capital": "Charlotte Amalie",
    "borders": [],
    "flag": {
      "emoji": "ðŸ‡»ðŸ‡®",
      "emoji_unicode": "U+1F1FB U+1F1EE",
      "svg": "https://flagcdn.com/vi.svg"
    }
  },
  "EC": {
    "name": "Ecuador",
    "calling_code": "+593",
    "capital": "Quito",
    "borders": [
      "CO",
      "PE"
    ],
    "flag": {
      "emoji": "ðŸ‡ªðŸ‡¨",
      "emoji_unicode": "U+1F1EA U+1F1E8",
      "svg": "https://flagcdn.com/ec.svg"
    }
  },
  "UZ": {
    "name": "Uzbekistan",
    "calling_code": "+998",
    "capital": "Tashkent",
    "borders": [
      "AF",
      "KZ",
      "KG",
      "TJ",
      "TM"
    ],
    "flag": {
      "emoji": "ðŸ‡ºðŸ‡¿",
      "emoji_unicode": "U+1F1FA U+1F1FF",
      "svg": "https://flagcdn.com/uz.svg"
    }
  },
  "GA": {
    "name": "Gabon",
    "calling_code": "+241",
    "capital": "Libreville",
    "borders": [
      "CM",
      "CG",
      "GQ"
    ],
    "flag": {
      "emoji": "ðŸ‡¬ðŸ‡¦",
      "emoji_unicode": "U+1F1EC U+1F1E6",
      "svg": "https://flagcdn.com/ga.svg"
    }
  },
  "SS": {
    "name": "South Sudan",
    "calling_code": "+211",
    "capital": "Juba",
    "borders": [
      "CF",
      "CD",
      "ET",
      "KE",
      "SD",
      "UG"
    ],
    "flag": {
      "emoji": "ðŸ‡¸ðŸ‡¸",
      "emoji_unicode": "U+1F1F8 U+1F1F8",
      "svg": "https://flagcdn.com/ss.svg"
    }
  },
  "IR": {
    "name": "Iran",
    "calling_code": "+98",
    "capital": "Tehran",
    "borders": [
      "AF",
      "AM",
      "AZ",
      "IQ",
      "PK",
      "TR",
      "TM"
    ],
    "flag": {
      "emoji": "ðŸ‡®ðŸ‡·",
      "emoji_unicode": "U+1F1EE U+1F1F7",
      "svg": "https://flagcdn.com/ir.svg"
    }
  },
  "KZ": {
    "name": "Kazakhstan",
    "calling_code": "+76",
    "capital": "Astana",
    "borders": [
      "CN",
      "KG",
      "RU",
      "TM",
      "UZ"
    ],
    "flag": {
      "emoji": "ðŸ‡°ðŸ‡¿",
      "emoji_unicode": "U+1F1F0 U+1F1FF",
      "svg": "https://flagcdn.com/kz.svg"
    }
  },
  "NI": {
    "name": "Nicaragua",
    "calling_code": "+505",
    "capital": "Managua",
    "borders": [
      "CR",
      "HN"
    ],
    "flag": {
      "emoji": "ðŸ‡³ðŸ‡®",
      "emoji_unicode": "U+1F1F3 U+1F1EE",
      "svg": "https://flagcdn.com/ni.svg"
    }
  },
  "IS": {
    "name": "Iceland",
    "calling_code": "+354",
    "capital": "Reykjavik",
    "borders": [],
    "flag": {
      "emoji": "ðŸ‡®ðŸ‡¸",
      "emoji_unicode": "U+1F1EE U+1F1F8",
      "svg": "https://flagcdn.com/is.svg"
    }
  },
  "SI": {
    "name": "Slovenia",
    "calling_code": "+386",
    "capital": "Ljubljana",
    "borders": [
      "AT",
      "HR",
      "IT",
      "HU"
    ],
    "flag": {
      "emoji": "ðŸ‡¸ðŸ‡®",
      "emoji_unicode": "U+1F1F8 U+1F1EE",
      "svg": "https://flagcdn.com/si.svg"
    }
  },
  "GP": {
    "name": "Guadeloupe",
    "calling_code": "+590",
    "capital": "Basse-Terre",
    "borders": [],
    "flag": {
      "emoji": "ðŸ‡¬ðŸ‡µ",
      "emoji_unicode": "U+1F1EC U+1F1F5",
      "svg": "https://flagcdn.com/gp.svg"
    }
  },
  "CM": {
    "name": "Cameroon",
    "calling_code": "+237",
    "capital": "YaoundÃ©",
    "borders": [
      "CF",
      "TD",
      "CG",
      "GQ",
      "GA",
      "NG"
    ],
    "flag": {
      "emoji": "ðŸ‡¨ðŸ‡²",
      "emoji_unicode": "U+1F1E8 U+1F1F2",
      "svg": "https://flagcdn.com/cm.svg"
    }
  },
  "AR": {
    "name": "Argentina",
    "calling_code": "+54",
    "capital": "Buenos Aires",
    "borders": [
      "BO",
      "BR",
      "CL",
      "PY",
      "UY"
    ],
    "flag": {
      "emoji": "ðŸ‡¦ðŸ‡·",
      "emoji_unicode": "U+1F1E6 U+1F1F7",
      "svg": "https://flagcdn.com/ar.svg"
    }
  },
  "AZ": {
    "name": "Azerbaijan",
    "calling_code": "+994",
    "capital": "Baku",
    "borders": [
      "AM",
      "GE",
      "IR",
      "RU",
      "TR"
    ],
    "flag": {
      "emoji": "ðŸ‡¦ðŸ‡¿",
      "emoji_unicode": "U+1F1E6 U+1F1FF",
      "svg": "https://flagcdn.com/az.svg"
    }
  },
  "UG": {
    "name": "Uganda",
    "calling_code": "+256",
    "capital": "Kampala",
    "borders": [
      "CD",
      "KE",
      "RW",
      "SS",
      "TZ"
    ],
    "flag": {
      "emoji": "ðŸ‡ºðŸ‡¬",
      "emoji_unicode": "U+1F1FA U+1F1EC",
      "svg": "https://flagcdn.com/ug.svg"
    }
  },
  "NE": {
    "name": "Niger",
    "calling_code": "+227",
    "capital": "Niamey",
    "borders": [
      "DZ",
      "BJ",
      "BF",
      "TD",
      "LY",
      "ML",
      "NG"
    ],
    "flag": {
      "emoji": "ðŸ‡³ðŸ‡ª",
      "emoji_unicode": "U+1F1F3 U+1F1EA",
      "svg": "https://flagcdn.com/ne.svg"
    }
  },
  "CX": {
    "name": "Christmas Island",
    "calling_code": "+61",
    "capital": "Flying Fish Cove",
    "borders": [],
    "flag": {
      "emoji": "ðŸ‡¨ðŸ‡½",
      "emoji_unicode": "U+1F1E8 U+1F1FD",
      "svg": "https://flagcdn.com/cx.svg"
    }
  },
  "MM": {
    "name": "Myanmar",
    "calling_code": "+95",
    "capital": "Naypyidaw",
    "borders": [
      "BD",
      "CN",
      "IN",
      "LA",
      "TH"
    ],
    "flag": {
      "emoji": "ðŸ‡²ðŸ‡²",
      "emoji_unicode": "U+1F1F2 U+1F1F2",
      "svg": "https://flagcdn.com/mm.svg"
    }
  },
  "PL": {
    "name": "Poland",
    "calling_code": "+48",
    "capital": "Warsaw",
    "borders": [
      "BY",
      "CZ",
      "DE",
      "LT",
      "RU",
      "SK",
      "UA"
    ],
    "flag": {
      "emoji": "ðŸ‡µðŸ‡±",
      "emoji_unicode": "U+1F1F5 U+1F1F1",
      "svg": "https://flagcdn.com/pl.svg"
    }
  },
  "JO": {
    "name": "Jordan",
    "calling_code": "+962",
    "capital": "Amman",
    "borders": [
      "IQ",
      "IL",
      "PS",
      "SA",
      "SY"
    ],
    "flag": {
      "emoji": "ðŸ‡¯ðŸ‡´",
      "emoji_unicode": "U+1F1EF U+1F1F4",
      "svg": "https://flagcdn.com/jo.svg"
    }
  },
  "HK": {
    "name": "Hong Kong",
    "calling_code": "+852",
    "capital": "City of Victoria",
    "borders": [
      "CN"
    ],
    "flag": {
      "emoji": "ðŸ‡­ðŸ‡°",
      "emoji_unicode": "U+1F1ED U+1F1F0",
      "svg": "https://flagcdn.com/hk.svg"
    }
  },
  "CD": {
    "name": "DR Congo",
    "calling_code": "+243",
    "capital": "Kinshasa",
    "borders": [
      "AO",
      "BI",
      "CF",
      "CG",
      "RW",
      "SS",
      "TZ",
      "UG",
      "ZM"
    ],
    "flag": {
      "emoji": "ðŸ‡¨ðŸ‡©",
      "emoji_unicode": "U+1F1E8 U+1F1E9",
      "svg": "https://flagcdn.com/cd.svg"
    }
  },
  "ER": {
    "name": "Eritrea",
    "calling_code": "+291",
    "capital": "Asmara",
    "borders": [
      "DJ",
      "ET",
      "SD"
    ],
    "flag": {
      "emoji": "ðŸ‡ªðŸ‡·",
      "emoji_unicode": "U+1F1EA U+1F1F7",
      "svg": "https://flagcdn.com/er.svg"
    }
  },
  "KI": {
    "name": "Kiribati",
    "calling_code": "+686",
    "capital": "South Tarawa",
    "borders": [],
    "flag": {
      "emoji": "ðŸ‡°ðŸ‡®",
      "emoji_unicode": "U+1F1F0 U+1F1EE",
      "svg": "https://flagcdn.com/ki.svg"
    }
  },
  "MH": {
    "name": "Marshall Islands",
    "calling_code": "+692",
    "capital": "Majuro",
    "borders": [],
    "flag": {
      "emoji": "ðŸ‡²ðŸ‡­",
      "emoji_unicode": "U+1F1F2 U+1F1ED",
      "svg": "https://flagcdn.com/mh.svg"
    }
  },
  "BF": {
    "name": "Burkina Faso",
    "calling_code": "+226",
    "capital": "Ouagadougou",
    "borders": [
      "BJ",
      "CI",
      "GH",
      "ML",
      "NE",
      "TG"
    ],
    "flag": {
      "emoji": "ðŸ‡§ðŸ‡«",
      "emoji_unicode": "U+1F1E7 U+1F1EB",
      "svg": "https://flagcdn.com/bf.svg"
    }
  },
  "ZW": {
    "name": "Zimbabwe",
    "calling_code": "+263",
    "capital": "Harare",
    "borders": [
      "BW",
      "MZ",
      "ZA",
      "ZM"
    ],
    "flag": {
      "emoji": "ðŸ‡¿ðŸ‡¼",
      "emoji_unicode": "U+1F1FF U+1F1FC",
      "svg": "https://flagcdn.com/zw.svg"
    }
  },
  "KE": {
    "name": "Kenya",
    "calling_code": "+254",
    "capital": "Nairobi",
    "borders": [
      "ET",
      "SO",
      "SS",
      "TZ",
      "UG"
    ],
    "flag": {
      "emoji": "ðŸ‡°ðŸ‡ª",
      "emoji_unicode": "U+1F1F0 U+1F1EA",
      "svg": "https://flagcdn.com/ke.svg"
    }
  },
  "KM": {
    "name": "Comoros",
    "calling_code": "+269",
    "capital": "Moroni",
    "borders": [],
    "flag": {
      "emoji": "ðŸ‡°ðŸ‡²",
      "emoji_unicode": "U+1F1F0 U+1F1F2",
      "svg": "https://flagcdn.com/km.svg"
    }
  },
  "GI": {
    "name": "Gibraltar",
    "calling_code": "+350",
    "capital": "Gibraltar",
    "borders": [
      "ES"
    ],
    "flag": {
      "emoji": "ðŸ‡¬ðŸ‡®",
      "emoji_unicode": "U+1F1EC U+1F1EE",
      "svg": "https://flagcdn.com/gi.svg"
    }
  },
  "BN": {
    "name": "Brunei",
    "calling_code": "+673",
    "capital": "Bandar Seri Begawan",
    "borders": [
      "MY"
    ],
    "flag": {
      "emoji": "ðŸ‡§ðŸ‡³",
      "emoji_unicode": "U+1F1E7 U+1F1F3",
      "svg": "https://flagcdn.com/bn.svg"
    }
  },
  "SE": {
    "name": "Sweden",
    "calling_code": "+46",
    "capital": "Stockholm",
    "borders": [
      "FI",
      "NO"
    ],
    "flag": {
      "emoji": "ðŸ‡¸ðŸ‡ª",
      "emoji_unicode": "U+1F1F8 U+1F1EA",
      "svg": "https://flagcdn.com/se.svg"
    }
  },
  "LS": {
    "name": "Lesotho",
    "calling_code": "+266",
    "capital": "Maseru",
    "borders": [
      "ZA"
    ],
    "flag": {
      "emoji": "ðŸ‡±ðŸ‡¸",
      "emoji_unicode": "U+1F1F1 U+1F1F8",
      "svg": "https://flagcdn.com/ls.svg"
    }
  },
  "IM": {
    "name": "Isle of Man",
    "calling_code": "+44",
    "capital": "Douglas",
    "borders": [],
    "flag": {
      "emoji": "ðŸ‡®ðŸ‡²",
      "emoji_unicode": "U+1F1EE U+1F1F2",
      "svg": "https://flagcdn.com/im.svg"
    }
  },
  "FM": {
    "name": "Micronesia",
    "calling_code": "+691",
    "capital": "Palikir",
    "borders": [],
    "flag": {
      "emoji": "ðŸ‡«ðŸ‡²",
      "emoji_unicode": "U+1F1EB U+1F1F2",
      "svg": "https://flagcdn.com/fm.svg"
    }
  },
  "TZ": {
    "name": "Tanzania",
    "calling_code": "+255",
    "capital": "Dodoma",
    "borders": [
      "BI",
      "CD",
      "KE",
      "MW",
      "MZ",
      "RW",
      "UG",
      "ZM"
    ],
    "flag": {
      "emoji": "ðŸ‡¹ðŸ‡¿",
      "emoji_unicode": "U+1F1F9 U+1F1FF",
      "svg": "https://flagcdn.com/tz.svg"
    }
  },
  "CV": {
    "name": "Cape Verde",
    "calling_code": "+238",
    "capital": "Praia",
    "borders": [],
    "flag": {
      "emoji": "ðŸ‡¨ðŸ‡»",
      "emoji_unicode": "U+1F1E8 U+1F1FB",
      "svg": "https://flagcdn.com/cv.svg"
    }
  },
  "AF": {
    "name": "Afghanistan",
    "calling_code": "+93",
    "capital": "Kabul",
    "borders": [
      "IR",
      "PK",
      "TM",
      "UZ",
      "TJ",
      "CN"
    ],
    "flag": {
      "emoji": "ðŸ‡¦ðŸ‡«",
      "emoji_unicode": "U+1F1E6 U+1F1EB",
      "svg": "https://flagcdn.com/af.svg"
    }
  },
  "AD": {
    "name": "Andorra",
    "calling_code": "+376",
    "capital": "Andorra la Vella",
    "borders": [
      "FR",
      "ES"
    ],
    "flag": {
      "emoji": "ðŸ‡¦ðŸ‡©",
      "emoji_unicode": "U+1F1E6 U+1F1E9",
      "svg": "https://flagcdn.com/ad.svg"
    }
  },
  "GR": {
    "name": "Greece",
    "calling_code": "+30",
    "capital": "Athens",
    "borders": [
      "AL",
      "BG",
      "TR",
      "MK"
    ],
    "flag": {
      "emoji": "ðŸ‡¬ðŸ‡·",
      "emoji_unicode": "U+1F1EC U+1F1F7",
      "svg": "https://flagcdn.com/gr.svg"
    }
  },
  "VN": {
    "name": "Vietnam",
    "calling_code": "+84",
    "capital": "Hanoi",
    "borders": [
      "KH",
      "CN",
      "LA"
    ],
    "flag": {
      "emoji": "ðŸ‡»ðŸ‡³",
      "emoji_unicode": "U+1F1FB U+1F1F3",
      "svg": "https://flagcdn.com/vn.svg"
    }
  },
  "TF": {
    "name": "French Southern and Antarctic Lands",
    "calling_code": "+262",
    "capital": "Port-aux-FranÃ§ais",
    "borders": [],
    "flag": {
      "emoji": "ðŸ‡¹ðŸ‡«",
      "emoji_unicode": "U+1F1F9 U+1F1EB",
      "svg": "https://flagcdn.com/tf.svg"
    }
  },
  "IQ": {
    "name": "Iraq",
    "calling_code": "+964",
    "capital": "Baghdad",
    "borders": [
      "IR",
      "JO",
      "KW",
      "SA",
      "SY",
      "TR"
    ],
    "flag": {
      "emoji": "ðŸ‡®ðŸ‡¶",
      "emoji_unicode": "U+1F1EE U+1F1F6",
      "svg": "https://flagcdn.com/iq.svg"
    }
  },
  "LY": {
    "name": "Libya",
    "calling_code": "+218",
    "capital": "Tripoli",
    "borders": [
      "DZ",
      "TD",
      "EG",
      "NE",
      "SD",
      "TN"
    ],
    "flag": {
      "emoji": "ðŸ‡±ðŸ‡¾",
      "emoji_unicode": "U+1F1F1 U+1F1FE",
      "svg": "https://flagcdn.com/ly.svg"
    }
  },
  "PT": {
    "name": "Portugal",
    "calling_code": "+351",
    "capital": "Lisbon",
    "borders": [
      "ES"
    ],
    "flag": {
      "emoji": "ðŸ‡µðŸ‡¹",
      "emoji_unicode": "U+1F1F5 U+1F1F9",
      "svg": "https://flagcdn.com/pt.svg"
    }
  },
  "PK": {
    "name": "Pakistan",
    "calling_code": "+92",
    "capital": "Islamabad",
    "borders": [
      "AF",
      "CN",
      "IN",
      "IR"
    ],
    "flag": {
      "emoji": "ðŸ‡µðŸ‡°",
      "emoji_unicode": "U+1F1F5 U+1F1F0",
      "svg": "https://flagcdn.com/pk.svg"
    }
  },
  "MV": {
    "name": "Maldives",
    "calling_code": "+960",
    "capital": "MalÃ©",
    "borders": [],
    "flag": {
      "emoji": "ðŸ‡²ðŸ‡»",
      "emoji_unicode": "U+1F1F2 U+1F1FB",
      "svg": "https://flagcdn.com/mv.svg"
    }
  },
  "MA": {
    "name": "Morocco",
    "calling_code": "+212",
    "capital": "Rabat",
    "borders": [
      "DZ",
      "EH",
      "ES"
    ],
    "flag": {
      "emoji": "ðŸ‡²ðŸ‡¦",
      "emoji_unicode": "U+1F1F2 U+1F1E6",
      "svg": "https://flagcdn.com/ma.svg"
    }
  },
  "BA": {
    "name": "Bosnia and Herzegovina",
    "calling_code": "+387",
    "capital": "Sarajevo",
    "borders": [
      "HR",
      "ME",
      "RS"
    ],
    "flag": {
      "emoji": "ðŸ‡§ðŸ‡¦",
      "emoji_unicode": "U+1F1E7 U+1F1E6",
      "svg": "https://flagcdn.com/ba.svg"
    }
  },
  "WS": {
    "name": "Samoa",
    "calling_code": "+685",
    "capital": "Apia",
    "borders": [],
    "flag": {
      "emoji": "ðŸ‡¼ðŸ‡¸",
      "emoji_unicode": "U+1F1FC U+1F1F8",
      "svg": "https://flagcdn.com/ws.svg"
    }
  },
  "PS": {
    "name": "Palestine",
    "calling_code": "+970",
    "capital": "Ramallah",
    "borders": [
      "IL",
      "EG",
      "JO"
    ],
    "flag": {
      "emoji": "ðŸ‡µðŸ‡¸",
      "emoji_unicode": "U+1F1F5 U+1F1F8",
      "svg": "https://flagcdn.com/ps.svg"
    }
  },
  "OM": {
    "name": "Oman",
    "calling_code": "+968",
    "capital": "Muscat",
    "borders": [
      "SA",
      "AE",
      "YE"
    ],
    "flag": {
      "emoji": "ðŸ‡´ðŸ‡²",
      "emoji_unicode": "U+1F1F4 U+1F1F2",
      "svg": "https://flagcdn.com/om.svg"
    }
  },
  "BH": {
    "name": "Bahrain",
    "calling_code": "+973",
    "capital": "Manama",
    "borders": [],
    "flag": {
      "emoji": "ðŸ‡§ðŸ‡­",
      "emoji_unicode": "U+1F1E7 U+1F1ED",
      "svg": "https://flagcdn.com/bh.svg"
    }
  },
  "US": {
    "name": "United States",
    "calling_code": "+1201",
    "capital": "Washington, D.C.",
    "borders": [
      "CA",
      "MX"
    ],
    "flag": {
      "emoji": "ðŸ‡ºðŸ‡¸",
      "emoji_unicode": "U+1F1FA U+1F1F8",
      "svg": "https://flagcdn.com/us.svg"
    }
  },
  "PR": {
    "name": "Puerto Rico",
    "calling_code": "+1787",
    "capital": "San Juan",
    "borders": [],
    "flag": {
      "emoji": "ðŸ‡µðŸ‡·",
      "emoji_unicode": "U+1F1F5 U+1F1F7",
      "svg": "https://flagcdn.com/pr.svg"
    }
  },
  "IO": {
    "name": "British Indian Ocean Territory",
    "calling_code": "+246",
    "capital": "Diego Garcia",
    "borders": [],
    "flag": {
      "emoji": "ðŸ‡®ðŸ‡´",
      "emoji_unicode": "U+1F1EE U+1F1F4",
      "svg": "https://flagcdn.com/io.svg"
    }
  },
  "JE": {
    "name": "Jersey",
    "calling_code": "+44",
    "capital": "Saint Helier",
    "borders": [],
    "flag": {
      "emoji": "ðŸ‡¯ðŸ‡ª",
      "emoji_unicode": "U+1F1EF U+1F1EA",
      "svg": "https://flagcdn.com/je.svg"
    }
  },
  "MK": {
    "name": "North Macedonia",
    "calling_code": "+389",
    "capital": "Skopje",
    "borders": [
      "AL",
      "BG",
      "GR",
      "XK",
      "RS"
    ],
    "flag": {
      "emoji": "ðŸ‡²ðŸ‡°",
      "emoji_unicode": "U+1F1F2 U+1F1F0",
      "svg": "https://flagcdn.com/mk.svg"
    }
  },
  "TN": {
    "name": "Tunisia",
    "calling_code": "+216",
    "capital": "Tunis",
    "borders": [
      "DZ",
      "LY"
    ],
    "flag": {
      "emoji": "ðŸ‡¹ðŸ‡³",
      "emoji_unicode": "U+1F1F9 U+1F1F3",
      "svg": "https://flagcdn.com/tn.svg"
    }
  },
  "TT": {
    "name": "Trinidad and Tobago",
    "calling_code": "+1868",
    "capital": "Port of Spain",
    "borders": [],
    "flag": {
      "emoji": "ðŸ‡¹ðŸ‡¹",
      "emoji_unicode": "U+1F1F9 U+1F1F9",
      "svg": "https://flagcdn.com/tt.svg"
    }
  },
  "EE": {
    "name": "Estonia",
    "calling_code": "+372",
    "capital": "Tallinn",
    "borders": [
      "LV",
      "RU"
    ],
    "flag": {
      "emoji": "ðŸ‡ªðŸ‡ª",
      "emoji_unicode": "U+1F1EA U+1F1EA",
      "svg": "https://flagcdn.com/ee.svg"
    }
  },
  "SG": {
    "name": "Singapore",
    "calling_code": "+65",
    "capital": "Singapore",
    "borders": [],
    "flag": {
      "emoji": "ðŸ‡¸ðŸ‡¬",
      "emoji_unicode": "U+1F1F8 U+1F1EC",
      "svg": "https://flagcdn.com/sg.svg"
    }
  },
  "PA": {
    "name": "Panama",
    "calling_code": "+507",
    "capital": "Panama City",
    "borders": [
      "CO",
      "CR"
    ],
    "flag": {
      "emoji": "ðŸ‡µðŸ‡¦",
      "emoji_unicode": "U+1F1F5 U+1F1E6",
      "svg": "https://flagcdn.com/pa.svg"
    }
  },
  "CH": {
    "name": "Switzerland",
    "calling_code": "+41",
    "capital": "Bern",
    "borders": [
      "AT",
      "FR",
      "IT",
      "LI",
      "DE"
    ],
    "flag": {
      "emoji": "ðŸ‡¨ðŸ‡­",
      "emoji_unicode": "U+1F1E8 U+1F1ED",
      "svg": "https://flagcdn.com/ch.svg"
    }
  },
  "UY": {
    "name": "Uruguay",
    "calling_code": "+598",
    "capital": "Montevideo",
    "borders": [
      "AR",
      "BR"
    ],
    "flag": {
      "emoji": "ðŸ‡ºðŸ‡¾",
      "emoji_unicode": "U+1F1FA U+1F1FE",
      "svg": "https://flagcdn.com/uy.svg"
    }
  },
  "TJ": {
    "name": "Tajikistan",
    "calling_code": "+992",
    "capital": "Dushanbe",
    "borders": [
      "AF",
      "CN",
      "KG",
      "UZ"
    ],
    "flag": {
      "emoji": "ðŸ‡¹ðŸ‡¯",
      "emoji_unicode": "U+1F1F9 U+1F1EF",
      "svg": "https://flagcdn.com/tj.svg"
    }
  },
  "TW": {
    "name": "Taiwan",
    "calling_code": "+886",
    "capital": "Taipei",
    "borders": [],
    "flag": {
      "emoji": "ðŸ‡¹ðŸ‡¼",
      "emoji_unicode": "U+1F1F9 U+1F1FC",
      "svg": "https://flagcdn.com/tw.svg"
    }
  },
  "ZA": {
    "name": "South Africa",
    "calling_code": "+27",
    "capital": "Pretoria",
    "borders": [
      "BW",
      "LS",
      "MZ",
      "NA",
      "SZ",
      "ZW"
    ],
    "flag": {
      "emoji": "ðŸ‡¿ðŸ‡¦",
      "emoji_unicode": "U+1F1FF U+1F1E6",
      "svg": "https://flagcdn.com/za.svg"
    }
  },
  "LI": {
    "name": "Liechtenstein",
    "calling_code": "+423",
    "capital": "Vaduz",
    "borders": [
      "AT",
      "CH"
    ],
    "flag": {
      "emoji": "ðŸ‡±ðŸ‡®",
      "emoji_unicode": "U+1F1F1 U+1F1EE",
      "svg": "https://flagcdn.com/li.svg"
    }
  },
  "BR": {
    "name": "Brazil",
    "calling_code": "+55",
    "capital": "BrasÃ­lia",
    "borders": [
      "AR",
      "BO",
      "CO",
      "GF",
      "GY",
      "PY",
      "PE",
      "SR",
      "UY",
      "VE"
    ],
    "flag": {
      "emoji": "ðŸ‡§ðŸ‡·",
      "emoji_unicode": "U+1F1E7 U+1F1F7",
      "svg": "https://flagcdn.com/br.svg"
    }
  },
  "AM": {
    "name": "Armenia",
    "calling_code": "+374",
    "capital": "Yerevan",
    "borders": [
      "AZ",
      "GE",
      "IR",
      "TR"
    ],
    "flag": {
      "emoji": "ðŸ‡¦ðŸ‡²",
      "emoji_unicode": "U+1F1E6 U+1F1F2",
      "svg": "https://flagcdn.com/am.svg"
    }
  },
  "GE": {
    "name": "Georgia",
    "calling_code": "+995",
    "capital": "Tbilisi",
    "borders": [
      "AM",
      "AZ",
      "RU",
      "TR"
    ],
    "flag": {
      "emoji": "ðŸ‡¬ðŸ‡ª",
      "emoji_unicode": "U+1F1EC U+1F1EA",
      "svg": "https://flagcdn.com/ge.svg"
    }
  },
  "AX": {
    "name": "Ã…land Islands",
    "calling_code": "+35818",
    "capital": "Mariehamn",
    "borders": [],
    "flag": {
      "emoji": "ðŸ‡¦ðŸ‡½",
      "emoji_unicode": "U+1F1E6 U+1F1FD",
      "svg": "https://flagcdn.com/ax.svg"
    }
  },
  "QA": {
    "name": "Qatar",
    "calling_code": "+974",
    "capital": "Doha",
    "borders": [
      "SA"
    ],
    "flag": {
      "emoji": "ðŸ‡¶ðŸ‡¦",
      "emoji_unicode": "U+1F1F6 U+1F1E6",
      "svg": "https://flagcdn.com/qa.svg"
    }
  },
  "DM": {
    "name": "Dominica",
    "calling_code": "+1767",
    "capital": "Roseau",
    "borders": [],
    "flag": {
      "emoji": "ðŸ‡©ðŸ‡²",
      "emoji_unicode": "U+1F1E9 U+1F1F2",
      "svg": "https://flagcdn.com/dm.svg"
    }
  },
  "UA": {
    "name": "Ukraine",
    "calling_code": "+380",
    "capital": "Kyiv",
    "borders": [
      "BY",
      "HU",
      "MD",
      "PL",
      "RO",
      "RU",
      "SK"
    ],
    "flag": {
      "emoji": "ðŸ‡ºðŸ‡¦",
      "emoji_unicode": "U+1F1FA U+1F1E6",
      "svg": "https://flagcdn.com/ua.svg"
    }
  },
  "GN": {
    "name": "Guinea",
    "calling_code": "+224",
    "capital": "Conakry",
    "borders": [
      "CI",
      "GW",
      "LR",
      "ML",
      "SN",
      "SL"
    ],
    "flag": {
      "emoji": "ðŸ‡¬ðŸ‡³",
      "emoji_unicode": "U+1F1EC U+1F1F3",
      "svg": "https://flagcdn.com/gn.svg"
    }
  },
  "MO": {
    "name": "Macau",
    "calling_code": "+853",
    "capital": null,
    "borders": [
      "CN"
    ],
    "flag": {
      "emoji": "ðŸ‡²ðŸ‡´",
      "emoji_unicode": "U+1F1F2 U+1F1F4",
      "svg": "https://flagcdn.com/mo.svg"
    }
  },
  "EH": {
    "name": "Western Sahara",
    "calling_code": "+2125288",
    "capital": "El AaiÃºn",
    "borders": [
      "DZ",
      "MR",
      "MA"
    ],
    "flag": {
      "emoji": "ðŸ‡ªðŸ‡­",
      "emoji_unicode": "U+1F1EA U+1F1ED",
      "svg": "https://flagcdn.com/eh.svg"
    }
  },
  "CZ": {
    "name": "Czechia",
    "calling_code": "+420",
    "capital": "Prague",
    "borders": [
      "AT",
      "DE",
      "PL",
      "SK"
    ],
    "flag": {
      "emoji": "ðŸ‡¨ðŸ‡¿",
      "emoji_unicode": "U+1F1E8 U+1F1FF",
      "svg": "https://flagcdn.com/cz.svg"
    }
  },
  "AT": {
    "name": "Austria",
    "calling_code": "+43",
    "capital": "Vienna",
    "borders": [
      "CZ",
      "DE",
      "HU",
      "IT",
      "LI",
      "SK",
      "SI",
      "CH"
    ],
    "flag": {
      "emoji": "ðŸ‡¦ðŸ‡¹",
      "emoji_unicode": "U+1F1E6 U+1F1F9",
      "svg": "https://flagcdn.com/at.svg"
    }
  },
  "KN": {
    "name": "Saint Kitts and Nevis",
    "calling_code": "+1869",
    "capital": "Basseterre",
    "borders": [],
    "flag": {
      "emoji": "ðŸ‡°ðŸ‡³",
      "emoji_unicode": "U+1F1F0 U+1F1F3",
      "svg": "https://flagcdn.com/kn.svg"
    }
  },
  "LC": {
    "name": "Saint Lucia",
    "calling_code": "+1758",
    "capital": "Castries",
    "borders": [],
    "flag": {
      "emoji": "ðŸ‡±ðŸ‡¨",
      "emoji_unicode": "U+1F1F1 U+1F1E8",
      "svg": "https://flagcdn.com/lc.svg"
    }
  },
  "YE": {
    "name": "Yemen",
    "calling_code": "+967",
    "capital": "Sana'a",
    "borders": [
      "OM",
      "SA"
    ],
    "flag": {
      "emoji": "ðŸ‡¾ðŸ‡ª",
      "emoji_unicode": "U+1F1FE U+1F1EA",
      "svg": "https://flagcdn.com/ye.svg"
    }
  },
  "RW": {
    "name": "Rwanda",
    "calling_code": "+250",
    "capital": "Kigali",
    "borders": [
      "BI",
      "CD",
      "TZ",
      "UG"
    ],
    "flag": {
      "emoji": "ðŸ‡·ðŸ‡¼",
      "emoji_unicode": "U+1F1F7 U+1F1FC",
      "svg": "https://flagcdn.com/rw.svg"
    }
  },
  "MC": {
    "name": "Monaco",
    "calling_code": "+377",
    "capital": "Monaco",
    "borders": [
      "FR"
    ],
    "flag": {
      "emoji": "ðŸ‡²ðŸ‡¨",
      "emoji_unicode": "U+1F1F2 U+1F1E8",
      "svg": "https://flagcdn.com/mc.svg"
    }
  },
  "ST": {
    "name": "SÃ£o TomÃ© and PrÃ­ncipe",
    "calling_code": "+239",
    "capital": "SÃ£o TomÃ©",
    "borders": [],
    "flag": {
      "emoji": "ðŸ‡¸ðŸ‡¹",
      "emoji_unicode": "U+1F1F8 U+1F1F9",
      "svg": "https://flagcdn.com/st.svg"
    }
  },
  "CG": {
    "name": "Republic of the Congo",
    "calling_code": "+242",
    "capital": "Brazzaville",
    "borders": [
      "AO",
      "CM",
      "CF",
      "CD",
      "GA"
    ],
    "flag": {
      "emoji": "ðŸ‡¨ðŸ‡¬",
      "emoji_unicode": "U+1F1E8 U+1F1EC",
      "svg": "https://flagcdn.com/cg.svg"
    }
  },
  "PY": {
    "name": "Paraguay",
    "calling_code": "+595",
    "capital": "AsunciÃ³n",
    "borders": [
      "AR",
      "BO",
      "BR"
    ],
    "flag": {
      "emoji": "ðŸ‡µðŸ‡¾",
      "emoji_unicode": "U+1F1F5 U+1F1FE",
      "svg": "https://flagcdn.com/py.svg"
    }
  },
  "BV": {
    "name": "Bouvet Island",
    "calling_code": "+47",
    "capital": null,
    "borders": [],
    "flag": {
      "emoji": "ðŸ‡§ðŸ‡»",
      "emoji_unicode": "U+1F1E7 U+1F1FB",
      "svg": "https://flagcdn.com/bv.svg"
    }
  },
  "MZ": {
    "name": "Mozambique",
    "calling_code": "+258",
    "capital": "Maputo",
    "borders": [
      "MW",
      "ZA",
      "SZ",
      "TZ",
      "ZM",
      "ZW"
    ],
    "flag": {
      "emoji": "ðŸ‡²ðŸ‡¿",
      "emoji_unicode": "U+1F1F2 U+1F1FF",
      "svg": "https://flagcdn.com/mz.svg"
    }
  },
  "FR": {
    "name": "France",
    "calling_code": "+33",
    "capital": "Paris",
    "borders": [
      "AD",
      "BE",
      "DE",
      "IT",
      "LU",
      "MC",
      "ES",
      "CH"
    ],
    "flag": {
      "emoji": "ðŸ‡«ðŸ‡·",
      "emoji_unicode": "U+1F1EB U+1F1F7",
      "svg": "https://flagcdn.com/fr.svg"
    }
  },
  "SZ": {
    "name": "Eswatini",
    "calling_code": "+268",
    "capital": "Mbabane",
    "borders": [
      "MZ",
      "ZA"
    ],
    "flag": {
      "emoji": "ðŸ‡¸ðŸ‡¿",
      "emoji_unicode": "U+1F1F8 U+1F1FF",
      "svg": "https://flagcdn.com/sz.svg"
    }
  },
  "BB": {
    "name": "Barbados",
    "calling_code": "+1246",
    "capital": "Bridgetown",
    "borders": [],
    "flag": {
      "emoji": "ðŸ‡§ðŸ‡§",
      "emoji_unicode": "U+1F1E7 U+1F1E7",
      "svg": "https://flagcdn.com/bb.svg"
    }
  },
  "ES": {
    "name": "Spain",
    "calling_code": "+34",
    "capital": "Madrid",
    "borders": [
      "AD",
      "FR",
      "GI",
      "PT",
      "MA"
    ],
    "flag": {
      "emoji": "ðŸ‡ªðŸ‡¸",
      "emoji_unicode": "U+1F1EA U+1F1F8",
      "svg": "https://flagcdn.com/es.svg"
    }
  },
  "TH": {
    "name": "Thailand",
    "calling_code": "+66",
    "capital": "Bangkok",
    "borders": [
      "MM",
      "KH",
      "LA",
      "MY"
    ],
    "flag": {
      "emoji": "ðŸ‡¹ðŸ‡­",
      "emoji_unicode": "U+1F1F9 U+1F1ED",
      "svg": "https://flagcdn.com/th.svg"
    }
  },
  "GW": {
    "name": "Guinea-Bissau",
    "calling_code": "+245",
    "capital": "Bissau",
    "borders": [
      "GN",
      "SN"
    ],
    "flag": {
      "emoji": "ðŸ‡¬ðŸ‡¼",
      "emoji_unicode": "U+1F1EC U+1F1FC",
      "svg": "https://flagcdn.com/gw.svg"
    }
  },
  "AO": {
    "name": "Angola",
    "calling_code": "+244",
    "capital": "Luanda",
    "borders": [
      "CG",
      "CD",
      "ZM",
      "NA"
    ],
    "flag": {
      "emoji": "ðŸ‡¦ðŸ‡´",
      "emoji_unicode": "U+1F1E6 U+1F1F4",
      "svg": "https://flagcdn.com/ao.svg"
    }
  },
  "IN": {
    "name": "India",
    "calling_code": "+91",
    "capital": "New Delhi",
    "borders": [
      "BD",
      "BT",
      "MM",
      "CN",
      "NP",
      "PK"
    ],
    "flag": {
      "emoji": "ðŸ‡®ðŸ‡³",
      "emoji_unicode": "U+1F1EE U+1F1F3",
      "svg": "https://flagcdn.com/in.svg"
    }
  },
  "MQ": {
    "name": "Martinique",
    "calling_code": "+596",
    "capital": "Fort-de-France",
    "borders": [],
    "flag": {
      "emoji": "ðŸ‡²ðŸ‡¶",
      "emoji_unicode": "U+1F1F2 U+1F1F6",
      "svg": "https://flagcdn.com/mq.svg"
    }
  },
  "NC": {
    "name": "New Caledonia",
    "calling_code": "+687",
    "capital": "NoumÃ©a",
    "borders": [],
    "flag": {
      "emoji": "ðŸ‡³ðŸ‡¨",
      "emoji_unicode": "U+1F1F3 U+1F1E8",
      "svg": "https://flagcdn.com/nc.svg"
    }
  },
  "SC": {
    "name": "Seychelles",
    "calling_code": "+248",
    "capital": "Victoria",
    "borders": [],
    "flag": {
      "emoji": "ðŸ‡¸ðŸ‡¨",
      "emoji_unicode": "U+1F1F8 U+1F1E8",
      "svg": "https://flagcdn.com/sc.svg"
    }
  },
  "FK": {
    "name": "Falkland Islands",
    "calling_code": "+500",
    "capital": "Stanley",
    "borders": [],
    "flag": {
      "emoji": "ðŸ‡«ðŸ‡°",
      "emoji_unicode": "U+1F1EB U+1F1F0",
      "svg": "https://flagcdn.com/fk.svg"
    }
  },
  "GB": {
    "name": "United Kingdom",
    "calling_code": "+44",
    "capital": "London",
    "borders": [
      "IE"
    ],
    "flag": {
      "emoji": "ðŸ‡¬ðŸ‡§",
      "emoji_unicode": "U+1F1EC U+1F1E7",
      "svg": "https://flagcdn.com/gb.svg"
    }
  },
  "FJ": {
    "name": "Fiji",
    "calling_code": "+679",
    "capital": "Suva",
    "borders": [],
    "flag": {
      "emoji": "ðŸ‡«ðŸ‡¯",
      "emoji_unicode": "U+1F1EB U+1F1EF",
      "svg": "https://flagcdn.com/fj.svg"
    }
  },
  "SM": {
    "name": "San Marino",
    "calling_code": "+378",
    "capital": "City of San Marino",
    "borders": [
      "IT"
    ],
    "flag": {
      "emoji": "ðŸ‡¸ðŸ‡²",
      "emoji_unicode": "U+1F1F8 U+1F1F2",
      "svg": "https://flagcdn.com/sm.svg"
    }
  },
  "ML": {
    "name": "Mali",
    "calling_code": "+223",
    "capital": "Bamako",
    "borders": [
      "DZ",
      "BF",
      "GN",
      "CI",
      "MR",
      "NE",
      "SN"
    ],
    "flag": {
      "emoji": "ðŸ‡²ðŸ‡±",
      "emoji_unicode": "U+1F1F2 U+1F1F1",
      "svg": "https://flagcdn.com/ml.svg"
    }
  },
  "CA": {
    "name": "Canada",
    "calling_code": "+1",
    "capital": "Ottawa",
    "borders": [
      "US"
    ],
    "flag": {
      "emoji": "ðŸ‡¨ðŸ‡¦",
      "emoji_unicode": "U+1F1E8 U+1F1E6",
      "svg": "https://flagcdn.com/ca.svg"
    }
  },
  "JM": {
    "name": "Jamaica",
    "calling_code": "+1876",
    "capital": "Kingston",
    "borders": [],
    "flag": {
      "emoji": "ðŸ‡¯ðŸ‡²",
      "emoji_unicode": "U+1F1EF U+1F1F2",
      "svg": "https://flagcdn.com/jm.svg"
    }
  },
  "NR": {
    "name": "Nauru",
    "calling_code": "+674",
    "capital": "Yaren",
    "borders": [],
    "flag": {
      "emoji": "ðŸ‡³ðŸ‡·",
      "emoji_unicode": "U+1F1F3 U+1F1F7",
      "svg": "https://flagcdn.com/nr.svg"
    }
  },
  "ID": {
    "name": "Indonesia",
    "calling_code": "+62",
    "capital": "Jakarta",
    "borders": [
      "TL",
      "MY",
      "PG"
    ],
    "flag": {
      "emoji": "ðŸ‡®ðŸ‡©",
      "emoji_unicode": "U+1F1EE U+1F1E9",
      "svg": "https://flagcdn.com/id.svg"
    }
  },
  "GU": {
    "name": "Guam",
    "calling_code": "+1671",
    "capital": "HagÃ¥tÃ±a",
    "borders": [],
    "flag": {
      "emoji": "ðŸ‡¬ðŸ‡º",
      "emoji_unicode": "U+1F1EC U+1F1FA",
      "svg": "https://flagcdn.com/gu.svg"
    }
  },
  "CI": {
    "name": "Ivory Coast",
    "calling_code": "+225",
    "capital": "Yamoussoukro",
    "borders": [
      "BF",
      "GH",
      "GN",
      "LR",
      "ML"
    ],
    "flag": {
      "emoji": "ðŸ‡¨ðŸ‡®",
      "emoji_unicode": "U+1F1E8 U+1F1EE",
      "svg": "https://flagcdn.com/ci.svg"
    }
  },
  "KW": {
    "name": "Kuwait",
    "calling_code": "+965",
    "capital": "Kuwait City",
    "borders": [
      "IQ",
      "SA"
    ],
    "flag": {
      "emoji": "ðŸ‡°ðŸ‡¼",
      "emoji_unicode": "U+1F1F0 U+1F1FC",
      "svg": "https://flagcdn.com/kw.svg"
    }
  },
  "PH": {
    "name": "Philippines",
    "calling_code": "+63",
    "capital": "Manila",
    "borders": [],
    "flag": {
      "emoji": "ðŸ‡µðŸ‡­",
      "emoji_unicode": "U+1F1F5 U+1F1ED",
      "svg": "https://flagcdn.com/ph.svg"
    }
  },
  "GY": {
    "name": "Guyana",
    "calling_code": "+592",
    "capital": "Georgetown",
    "borders": [
      "BR",
      "SR",
      "VE"
    ],
    "flag": {
      "emoji": "ðŸ‡¬ðŸ‡¾",
      "emoji_unicode": "U+1F1EC U+1F1FE",
      "svg": "https://flagcdn.com/gy.svg"
    }
  },
  "HU": {
    "name": "Hungary",
    "calling_code": "+36",
    "capital": "Budapest",
    "borders": [
      "AT",
      "HR",
      "RO",
      "RS",
      "SK",
      "SI",
      "UA"
    ],
    "flag": {
      "emoji": "ðŸ‡­ðŸ‡º",
      "emoji_unicode": "U+1F1ED U+1F1FA",
      "svg": "https://flagcdn.com/hu.svg"
    }
  },
  "MX": {
    "name": "Mexico",
    "calling_code": "+52",
    "capital": "Mexico City",
    "borders": [
      "BZ",
      "GT",
      "US"
    ],
    "flag": {
      "emoji": "ðŸ‡²ðŸ‡½",
      "emoji_unicode": "U+1F1F2 U+1F1FD",
      "svg": "https://flagcdn.com/mx.svg"
    }
  },
  "KP": {
    "name": "North Korea",
    "calling_code": "+850",
    "capital": "Pyongyang",
    "borders": [
      "CN",
      "KR",
      "RU"
    ],
    "flag": {
      "emoji": "ðŸ‡°ðŸ‡µ",
      "emoji_unicode": "U+1F1F0 U+1F1F5",
      "svg": "https://flagcdn.com/kp.svg"
    }
  },
  "RO": {
    "name": "Romania",
    "calling_code": "+40",
    "capital": "Bucharest",
    "borders": [
      "BG",
      "HU",
      "MD",
      "RS",
      "UA"
    ],
    "flag": {
      "emoji": "ðŸ‡·ðŸ‡´",
      "emoji_unicode": "U+1F1F7 U+1F1F4",
      "svg": "https://flagcdn.com/ro.svg"
    }
  },
  "SR": {
    "name": "Suriname",
    "calling_code": "+597",
    "capital": "Paramaribo",
    "borders": [
      "BR",
      "GF",
      "GY"
    ],
    "flag": {
      "emoji": "ðŸ‡¸ðŸ‡·",
      "emoji_unicode": "U+1F1F8 U+1F1F7",
      "svg": "https://flagcdn.com/sr.svg"
    }
  },
  "AS": {
    "name": "American Samoa",
    "calling_code": "+1684",
    "capital": "Pago Pago",
    "borders": [],
    "flag": {
      "emoji": "ðŸ‡¦ðŸ‡¸",
      "emoji_unicode": "U+1F1E6 U+1F1F8",
      "svg": "https://flagcdn.com/as.svg"
    }
  },
  "NP": {
    "name": "Nepal",
    "calling_code": "+977",
    "capital": "Kathmandu",
    "borders": [
      "CN",
      "IN"
    ],
    "flag": {
      "emoji": "ðŸ‡³ðŸ‡µ",
      "emoji_unicode": "U+1F1F3 U+1F1F5",
      "svg": "https://flagcdn.com/np.svg"
    }
  },
  "TD": {
    "name": "Chad",
    "calling_code": "+235",
    "capital": "N'Djamena",
    "borders": [
      "CM",
      "CF",
      "LY",
      "NE",
      "NG",
      "SD"
    ],
    "flag": {
      "emoji": "ðŸ‡¹ðŸ‡©",
      "emoji_unicode": "U+1F1F9 U+1F1E9",
      "svg": "https://flagcdn.com/td.svg"
    }
  },
  "RS": {
    "name": "Serbia",
    "calling_code": "+381",
    "capital": "Belgrade",
    "borders": [
      "BA",
      "BG",
      "HR",
      "HU",
      "XK",
      "MK",
      "ME",
      "RO"
    ],
    "flag": {
      "emoji": "ðŸ‡·ðŸ‡¸",
      "emoji_unicode": "U+1F1F7 U+1F1F8",
      "svg": "https://flagcdn.com/rs.svg"
    }
  },
  "KH": {
    "name": "Cambodia",
    "calling_code": "+855",
    "capital": "Phnom Penh",
    "borders": [
      "LA",
      "TH",
      "VN"
    ],
    "flag": {
      "emoji": "ðŸ‡°ðŸ‡­",
      "emoji_unicode": "U+1F1F0 U+1F1ED",
      "svg": "https://flagcdn.com/kh.svg"
    }
  },
  "MY": {
    "name": "Malaysia",
    "calling_code": "+60",
    "capital": "Kuala Lumpur",
    "borders": [
      "BN",
      "ID",
      "TH"
    ],
    "flag": {
      "emoji": "ðŸ‡²ðŸ‡¾",
      "emoji_unicode": "U+1F1F2 U+1F1FE",
      "svg": "https://flagcdn.com/my.svg"
    }
  },
  "CY": {
    "name": "Cyprus",
    "calling_code": "+357",
    "capital": "Nicosia",
    "borders": [],
    "flag": {
      "emoji": "ðŸ‡¨ðŸ‡¾",
      "emoji_unicode": "U+1F1E8 U+1F1FE",
      "svg": "https://flagcdn.com/cy.svg"
    }
  }
}